{
  "type": "FeatureCollection",
  "features": [
    {
      "type": "Feature",
      "properties": {
        "norad_id": 29922,
        "name": "FENGYUN 1C DEB",
        "group": "fengyun-1c-debris",
        "lat": 20.796567650644445,
        "lon": -133.1814651256238,
        "alt_km": 956.8241590241614,
        "timestamp": "2025-12-11T20:41:15.353311+00:00",
        "meta_object_name": "FENGYUN 1C DEB",
        "meta_object_id": "1999-025HU",
        "meta_epoch": "2025-12-11T14:46:59.899584",
        "meta_mean_motion": 13.98580315,
        "meta_eccentricity": 0.00933291,
        "meta_inclination": 99.136,
        "meta_ra_of_asc_node": 43.0696,
        "meta_arg_of_pericenter": 10.1392,
        "meta_mean_anomaly": 350.1626,
        "meta_ephemeris_type": 0,
        "meta_classification_type": "U",
        "meta_norad_cat_id": 29922,
        "meta_element_set_no": 999,
        "meta_rev_at_epoch": 96425,
        "meta_bstar": 0.00016500479,
        "meta_mean_motion_dot": 2.01e-06,
        "meta_mean_motion_ddot": 0,
        "tle_line1": "1 29922U 99025HU  25345.61597106  .00000201  00000+0  16500-3 0  9990",
        "tle_line2": "2 29922  99.1360  43.0696 0093329  10.1392 350.1626 13.98580315964256"
      },
      "geometry": {
        "type": "Point",
        "coordinates": [
          -133.1814651256238,
          20.796567650644445
        ]
      }
    },
    {
      "type": "Feature",
      "properties": {
        "norad_id": 29923,
        "name": "FENGYUN 1C DEB",
        "group": "fengyun-1c-debris",
        "lat": -47.95472516916534,
        "lon": 3.9405594454086574,
        "alt_km": 862.5406522732437,
        "timestamp": "2025-12-11T20:41:15.353321+00:00",
        "meta_object_name": "FENGYUN 1C DEB",
        "meta_object_id": "1999-025HV",
        "meta_epoch": "2025-12-11T07:23:10.204800",
        "meta_mean_motion": 14.13889077,
        "meta_eccentricity": 0.00175681,
        "meta_inclination": 98.6883,
        "meta_ra_of_asc_node": 353.6401,
        "meta_arg_of_pericenter": 173.3076,
        "meta_mean_anomaly": 198.5146,
        "meta_ephemeris_type": 0,
        "meta_classification_type": "U",
        "meta_norad_cat_id": 29923,
        "meta_element_set_no": 999,
        "meta_rev_at_epoch": 97255,
        "meta_bstar": 0.00071500529,
        "meta_mean_motion_dot": 1.315e-05,
        "meta_mean_motion_ddot": 0,
        "tle_line1": "1 29923U 99025HV  25345.30775700  .00001315  00000+0  71501-3 0  9994",
        "tle_line2": "2 29923  98.6883 353.6401 0017568 173.3076 198.5146 14.13889077972555"
      },
      "geometry": {
        "type": "Point",
        "coordinates": [
          3.9405594454086574,
          -47.95472516916534
        ]
      }
    },
    {
      "type": "Feature",
      "properties": {
        "norad_id": 29924,
        "name": "FENGYUN 1C DEB",
        "group": "fengyun-1c-debris",
        "lat": -57.54760399979997,
        "lon": 12.837096924571783,
        "alt_km": 856.0877956861286,
        "timestamp": "2025-12-11T20:41:15.353331+00:00",
        "meta_object_name": "FENGYUN 1C DEB",
        "meta_object_id": "1999-025HW",
        "meta_epoch": "2025-12-11T00:38:31.572384",
        "meta_mean_motion": 14.08889479,
        "meta_eccentricity": 0.0025882,
        "meta_inclination": 98.7345,
        "meta_ra_of_asc_node": 358.0375,
        "meta_arg_of_pericenter": 262.6601,
        "meta_mean_anomaly": 124.6663,
        "meta_ephemeris_type": 0,
        "meta_classification_type": "U",
        "meta_norad_cat_id": 29924,
        "meta_element_set_no": 999,
        "meta_rev_at_epoch": 97184,
        "meta_bstar": 0.00010020214,
        "meta_mean_motion_dot": 1.31e-06,
        "meta_mean_motion_ddot": 0,
        "tle_line1": "1 29924U 99025HW  25345.02675431  .00000131  00000+0  10020-3 0  9998",
        "tle_line2": "2 29924  98.7345 358.0375 0025882 262.6601 124.6663 14.08889479971848"
      },
      "geometry": {
        "type": "Point",
        "coordinates": [
          12.837096924571783,
          -57.54760399979997
        ]
      }
    },
    {
      "type": "Feature",
      "properties": {
        "norad_id": 29926,
        "name": "FENGYUN 1C DEB",
        "group": "fengyun-1c-debris",
        "lat": 81.05557378374388,
        "lon": -137.43782954820705,
        "alt_km": 926.5972067195862,
        "timestamp": "2025-12-11T20:41:15.353341+00:00",
        "meta_object_name": "FENGYUN 1C DEB",
        "meta_object_id": "1999-025HY",
        "meta_epoch": "2025-12-11T12:27:29.403648",
        "meta_mean_motion": 14.33388649,
        "meta_eccentricity": 0.02482974,
        "meta_inclination": 98.2835,
        "meta_ra_of_asc_node": 334.4711,
        "meta_arg_of_pericenter": 303.8985,
        "meta_mean_anomaly": 179.6704,
        "meta_ephemeris_type": 0,
        "meta_classification_type": "U",
        "meta_norad_cat_id": 29926,
        "meta_element_set_no": 999,
        "meta_rev_at_epoch": 98563,
        "meta_bstar": 0.0006997217,
        "meta_mean_motion_dot": 2.672e-05,
        "meta_mean_motion_ddot": 0,
        "tle_line1": "1 29926U 99025HY  25345.51909032  .00002672  00000+0  69972-3 0  9993",
        "tle_line2": "2 29926  98.2835 334.4711 0248297 303.8985 179.6704 14.33388649985630"
      },
      "geometry": {
        "type": "Point",
        "coordinates": [
          -137.43782954820705,
          81.05557378374388
        ]
      }
    },
    {
      "type": "Feature",
      "properties": {
        "norad_id": 29927,
        "name": "FENGYUN 1C DEB",
        "group": "fengyun-1c-debris",
        "lat": 80.90380755480412,
        "lon": -82.24917640974569,
        "alt_km": 645.9682705144724,
        "timestamp": "2025-12-11T20:41:15.353351+00:00",
        "meta_object_name": "FENGYUN 1C DEB",
        "meta_object_id": "1999-025HZ",
        "meta_epoch": "2025-12-11T00:52:00.863904",
        "meta_mean_motion": 14.74451739,
        "meta_eccentricity": 0.001769,
        "meta_inclination": 99.085,
        "meta_ra_of_asc_node": 8.781,
        "meta_arg_of_pericenter": 215.5519,
        "meta_mean_anomaly": 173.7226,
        "meta_ephemeris_type": 0,
        "meta_classification_type": "U",
        "meta_norad_cat_id": 29927,
        "meta_element_set_no": 999,
        "meta_rev_at_epoch": 98622,
        "meta_bstar": 0.004563983,
        "meta_mean_motion_dot": 0.00030458,
        "meta_mean_motion_ddot": 0,
        "tle_line1": "1 29927U 99025HZ  25345.03612111  .00030458  00000+0  45640-2 0  9998",
        "tle_line2": "2 29927  99.0850   8.7810 0017690 215.5519 173.7226 14.74451739986227"
      },
      "geometry": {
        "type": "Point",
        "coordinates": [
          -82.24917640974569,
          80.90380755480412
        ]
      }
    },
    {
      "type": "Feature",
      "properties": {
        "norad_id": 29928,
        "name": "FENGYUN 1C DEB",
        "group": "fengyun-1c-debris",
        "lat": 63.84616497160187,
        "lon": -149.76858317126627,
        "alt_km": 825.3829117090108,
        "timestamp": "2025-12-11T20:41:15.353361+00:00",
        "meta_object_name": "FENGYUN 1C DEB",
        "meta_object_id": "1999-025JA",
        "meta_epoch": "2025-12-10T01:01:58.968768",
        "meta_mean_motion": 13.88077825,
        "meta_eccentricity": 0.01434645,
        "meta_inclination": 99.5849,
        "meta_ra_of_asc_node": 8.2376,
        "meta_arg_of_pericenter": 110.2315,
        "meta_mean_anomaly": 279.3545,
        "meta_ephemeris_type": 0,
        "meta_classification_type": "U",
        "meta_norad_cat_id": 29928,
        "meta_element_set_no": 999,
        "meta_rev_at_epoch": 95454,
        "meta_bstar": 0.00082815704,
        "meta_mean_motion_dot": 1.026e-05,
        "meta_mean_motion_ddot": 0,
        "tle_line1": "1 29928U 99025JA  25344.04304362  .00001026  00000+0  82816-3 0  9991",
        "tle_line2": "2 29928  99.5849   8.2376 0143464 110.2315 279.3545 13.88077825954548"
      },
      "geometry": {
        "type": "Point",
        "coordinates": [
          -149.76858317126627,
          63.84616497160187
        ]
      }
    },
    {
      "type": "Feature",
      "properties": {
        "norad_id": 29929,
        "name": "FENGYUN 1C DEB",
        "group": "fengyun-1c-debris",
        "lat": -61.8385847220773,
        "lon": -78.37781874552012,
        "alt_km": 940.3640728637438,
        "timestamp": "2025-12-11T20:41:15.353370+00:00",
        "meta_object_name": "FENGYUN 1C DEB",
        "meta_object_id": "1999-025JB",
        "meta_epoch": "2025-12-11T13:17:09.329280",
        "meta_mean_motion": 14.01355195,
        "meta_eccentricity": 0.01311187,
        "meta_inclination": 98.6238,
        "meta_ra_of_asc_node": 264.8626,
        "meta_arg_of_pericenter": 179.5875,
        "meta_mean_anomaly": 1.0574,
        "meta_ephemeris_type": 0,
        "meta_classification_type": "U",
        "meta_norad_cat_id": 29929,
        "meta_element_set_no": 999,
        "meta_rev_at_epoch": 95939,
        "meta_bstar": 0.00145713,
        "meta_mean_motion_dot": 2.327e-05,
        "meta_mean_motion_ddot": 0,
        "tle_line1": "1 29929U 99025JB  25345.55358020  .00002327  00000+0  14571-2 0  9996",
        "tle_line2": "2 29929  98.6238 264.8626 0131118 179.5875   1.0574 14.01355195959396"
      },
      "geometry": {
        "type": "Point",
        "coordinates": [
          -78.37781874552012,
          -61.8385847220773
        ]
      }
    }
  ]
}